NORAD_CAT_ID,OBJECT_NAME,OBJECT_TYPE,EPOCH,MEAN_MOTION,ECCENTRICITY,INCLINATION,RA_OF_ASC_NODE,ARG_OF_PERICENTER,MEAN_ANOMALY,BSTAR,MEAN_MOTION_DOT,MEAN_MOTION_DDOT,TLE_LINE0,TLE_LINE1,TLE_LINE2,SEMIMAJOR_AXIS,PERIOD,APOGEE,PERIGEE,DECAYED
52452.0,STARLINK-3909,PAYLOAD,2022-09-07 04:00:00,15.08834771,0.0001506999999999,53.2165,53.1196,76.0888,236.1418,-0.0011448,-0.00018459,0.0,0 STARLINK-3909,1 52452U 22049B   22250.16667824 -.00018459  00000-0 -11448-2 0  9995,2 52452  53.2165  53.1196 0001507  76.0888 236.1418 15.08834771 19107,6917.896,95.438,540.804,538.719,0.0
52452.0,STARLINK-3909,PAYLOAD,2022-09-07 14:00:01,15.08851009,0.0001561,53.2166,51.2493,78.1764,338.5251,-0.0014777999999999,-0.00023737,0.0,0 STARLINK-3909,1 52452U 22049B   22250.58334491 -.00023737  00000-0 -14778-2 0  9996,2 52452  53.2166  51.2493 0001561  78.1764 338.5251 15.08851009  1301,6917.847,95.437,540.7919999999998,538.632,0.0
52452.0,STARLINK-3909,PAYLOAD,2022-09-07 22:00:00,15.08821606,0.0001551,53.2165,49.754,69.3348,358.9668,0.0027261,0.00043343,0.0,0 STARLINK-3909,1 52452U 22049B   22250.91667824  .00043343  00000-0  27261-2 0  9996,2 52452  53.2165  49.7540 0001551  69.3348 358.9668 15.08821606  1302,6917.937,95.439,540.875,538.729,0.0
52452.0,STARLINK-3909,PAYLOAD,2022-09-08 14:00:01,15.08845774,0.0001473,53.2168,46.7598,74.827,16.658,-0.0015438,-0.00024777,0.0,0 STARLINK-3909,1 52452U 22049B   22251.58334491 -.00024777  00000-0 -15438-2 0  9996,2 52452  53.2168  46.7598 0001473  74.8270  16.6580 15.08845774  1306,6917.863,95.437,540.747,538.7090000000002,0.0
52452.0,STARLINK-3909,PAYLOAD,2022-09-08 22:00:00,15.08823993,0.0001473,53.2168,45.2643,65.3266,37.7564,0.0026446,0.00042034,0.0,0 STARLINK-3909,1 52452U 22049B   22251.91667824  .00042034  00000-0  26446-2 0  9997,2 52452  53.2168  45.2643 0001473  65.3266  37.7564 15.08823993 19361,6917.929,95.439,540.813,538.775,0.0
52452.0,STARLINK-3909,PAYLOAD,2022-09-09 14:00:01,15.08847573,0.0001383,53.2175,42.2704,70.4591,55.8089,-0.0012580999999999,-0.00020259,0.0,0 STARLINK-3909,1 52452U 22049B   22252.58334491 -.00020259  00000-0 -12581-2 0  9994,2 52452  53.2175  42.2704 0001383  70.4591  55.8089 15.08847573  1300,6917.857,95.437,540.679,538.766,0.0
52452.0,STARLINK-3909,PAYLOAD,2022-09-09 22:00:00,15.08831966,0.0001446,53.2175,40.7749,61.96,75.9039,0.0019117,0.00030261,0.0,0 STARLINK-3909,1 52452U 22049B   22252.91667824  .00030261  00000-0  19117-2 0  9994,2 52452  53.2175  40.7749 0001446  61.9600  75.9039 15.08831966  1305,6917.905,95.438,540.77,538.77,0.0
52452.0,STARLINK-3909,PAYLOAD,2022-09-10 06:00:02,15.08821932,0.0001365999999999,53.2179,39.2767,71.6758,77.8587,0.0012627,0.00019855,0.0,0 STARLINK-3909,1 52452U 22049B   22253.25002315  .00019855  00000-0  12627-2 0  9995,2 52452  53.2179  39.2767 0001366  71.6758  77.8587 15.08821932 19574,6917.936,95.439,540.746,538.856,0.0
52452.0,STARLINK-3909,PAYLOAD,2022-09-10 14:00:01,15.08847145,0.0001493,53.2182,37.7813,69.9714,91.0808,-0.001148,-0.00018515,0.0,0 STARLINK-3909,1 52452U 22049B   22253.58334491 -.00018515  00000-0 -11480-2 0  9994,2 52452  53.2182  37.7813 0001493  69.9714  91.0808 15.08847145  1306,6917.859,95.437,540.756,538.691,0.0
52452.0,STARLINK-3909,PAYLOAD,2022-09-10 22:00:00,15.08845618,0.0001486,53.2181,36.2856,62.3951,110.2511,-0.00089505,-0.00014507,0.0,0 STARLINK-3909,1 52452U 22049B   22253.91667824 -.00014507  00000-0 -89505-3 0  9991,2 52452  53.2181  36.2856 0001486  62.3951 110.2511 15.08845618  1306,6917.863,95.437,540.756,538.7,0.0
52452.0,STARLINK-3909,PAYLOAD,2022-09-11 06:00:00,15.08809687,0.0001291999999999,53.2184,34.7876,70.616,113.6434,0.0030891,0.00049177,0.0,0 STARLINK-3909,1 52452U 22049B   22254.25001157  .00049177  00000-0  30891-2 0  9992,2 52452  53.2184  34.7876 0001292  70.6160 113.6434 15.08809687 19725,6917.973000000001,95.439,540.732,538.944,0.0
52452.0,STARLINK-3909,PAYLOAD,2022-09-11 14:00:01,15.0885654,0.0001398,53.2187,33.2925,67.4018,128.4338,-0.001616,-0.00025926,0.0,0 STARLINK-3909,1 52452U 22049B   22254.58334491 -.00025926  00000-0 -16160-2 0  9999,2 52452  53.2187  33.2925 0001398  67.4018 128.4338 15.08856540  1302,6917.83,95.437,540.6619999999998,538.7280000000002,0.0
52452.0,STARLINK-3909,PAYLOAD,2022-09-11 22:00:00,15.08837374,0.0001472,53.2184,31.7966,61.9907,145.45,-0.00027889,-4.723e-05,0.0,0 STARLINK-3909,1 52452U 22049B   22254.91667824 -.00004723  00000-0 -27889-3 0  9998,2 52452  53.2184  31.7966 0001472  61.9907 145.4500 15.08837374  1300,6917.888000000001,95.438,540.7719999999998,538.735,0.0
52452.0,STARLINK-3909,PAYLOAD,2022-09-12 14:00:01,15.08865021,0.0001423,53.2187,28.8039,67.3965,163.2283,-0.0020415,-0.00032654,0.0,0 STARLINK-3909,1 52452U 22049B   22255.58334491 -.00032654  00000-0 -20415-2 0  9994,2 52452  53.2187  28.8039 0001423  67.3965 163.2283 15.08865021  1307,6917.804,95.436,540.653,538.685,0.0
52452.0,STARLINK-3909,PAYLOAD,2022-09-12 22:00:00,15.08841454,0.0001385999999999,53.2183,27.3079,61.6576,180.5813,-0.00030122,-5.079e-05,0.0,0 STARLINK-3909,1 52452U 22049B   22255.91667824 -.00005079  00000-0 -30122-3 0  9998,2 52452  53.2183  27.3079 0001386  61.6576 180.5813 15.08841454 19971,6917.876,95.437,540.7,538.7819999999998,0.0
52452.0,STARLINK-3909,PAYLOAD,2022-09-13 14:00:01,15.08831176,0.0001443999999999,53.2183,24.3154,66.2505,199.1657,-0.0004336,-7.18e-05,0.0,0 STARLINK-3909,1 52452U 22049B   22256.58334491 -.00007180  00000-0 -43360-3 0  9996,2 52452  53.2183  24.3154 0001444  66.2505 199.1657 15.08831176  1300,6917.906999999997,95.438,540.771,538.773,0.0
52452.0,STARLINK-3909,PAYLOAD,2022-09-13 22:00:00,15.08844671,0.0001431999999999,53.218,22.8193,61.4821,215.5147,8.0003e-05,9.86e-06,0.0,0 STARLINK-3909,1 52452U 22049B   22256.91667824  .00000986  00000-0  80003-4 0  9993,2 52452  53.2180  22.8193 0001432  61.4821 215.5147 15.08844671  1309,6917.866,95.437,540.722,538.74,0.0
52452.0,STARLINK-3909,PAYLOAD,2022-09-14 06:00:00,15.08829248,0.0001301,53.218,21.3214,70.1632,218.4389,0.00084077,0.00013114,0.0,0 STARLINK-3909,1 52452U 22049B   22257.25001157  .00013114  00000-0  84077-3 0  9993,2 52452  53.2180  21.3214 0001301  70.1632 218.4389 15.08829248 20178,6917.913000000001,95.438,540.678,538.878,0.0
52452.0,STARLINK-3909,PAYLOAD,2022-09-14 14:00:01,15.08730308,0.0001272,53.2177,19.8227,62.8,237.4114,0.0091656,0.00148222,0.0,0 STARLINK-3909,1 52452U 22049B   22257.58334491  .00148222  00000-0  91656-2 0  9998,2 52452  53.2177  19.8227 0001272  62.8000 237.4114 15.08730308  1303,6918.215999999999,95.444,540.961,539.201,0.0
52452.0,STARLINK-3909,PAYLOAD,2022-09-14 22:00:00,15.08839249,0.0001214,53.2172,18.3254,54.6429,257.0941,-0.0003186,-5.355e-05,0.0,0 STARLINK-3909,1 52452U 22049B   22257.91667824 -.00005355  00000-0 -31860-3 0  9997,2 52452  53.2172  18.3254 0001214  54.6429 257.0941 15.08839249  1302,6917.8830000000025,95.438,540.5880000000002,538.908,0.0
52452.0,STARLINK-3909,PAYLOAD,2022-09-15 06:00:00,15.08809198,0.0001406999999999,53.2178,16.8325,68.9469,254.4378,0.0038042,0.00060726,0.0,0 STARLINK-3909,1 52452U 22049B   22258.25001157  .00060726  00000-0  38042-2 0  9995,2 52452  53.2178  16.8325 0001407  68.9469 254.4378 15.08809198 20324,6917.975,95.44,540.813,538.866,0.0
52452.0,STARLINK-3909,PAYLOAD,2022-09-15 14:00:01,15.08864653,0.0001486999999999,53.2179,15.3379,61.1348,273.8323,-0.0028608,-0.0004556,0.0,0 STARLINK-3909,1 52452U 22049B   22258.58334491 -.00045560  00000-0 -28608-2 0  9999,2 52452  53.2179  15.3379 0001487  61.1348 273.8323 15.08864653  1306,6917.805,95.436,540.6990000000002,538.641,0.0
52452.0,STARLINK-3909,PAYLOAD,2022-09-15 16:00:00,15.08854428,0.0001519,53.218,14.9641,59.5068,8.3653,-0.002074,-0.00033157,0.0,0 STARLINK-3909,1 52452U 22049B   22258.66667824 -.00033157  00000-0 -20740-2 0  9995,2 52452  53.2180  14.9641 0001519  59.5068   8.3653 15.08854428 20386,6917.8359999999975,95.437,540.752,538.65,0.0
52452.0,STARLINK-3909,PAYLOAD,2022-09-16 02:49:45,15.08845286,0.0001524,53.2192,12.937,68.8309,291.2846,9.5841e-05,1.238e-05,0.0,0 STARLINK-3909,1 52452U 22049B   22259.11788901  .00001238  00000-0  95841-4 0  9995,2 52452  53.2192  12.9370 0001524  68.8309 291.2846 15.08845286 20450,6917.864000000001,95.437,540.784,538.675,0.0
52452.0,STARLINK-3909,PAYLOAD,2022-09-16 13:57:28,15.08839691,0.0001610999999999,53.219,10.8556,60.8946,299.2208,4.3392e-06,-2.19e-06,0.0,0 STARLINK-3909,1 52452U 22049B   22259.58157447 -.00000219  00000-0  43392-5 0  9995,2 52452  53.2190  10.8556 0001611  60.8946 299.2208 15.08839691 20528,6917.880999999999,95.438,540.861,538.632,0.0
52452.0,STARLINK-3909,PAYLOAD,2022-09-16 17:08:14,15.08836739,0.0001518,53.2194,10.2611,63.7225,296.3923,-3.2232e-05,-8.01e-06,0.0,0 STARLINK-3909,1 52452U 22049B   22259.71405707 -.00000801  00000-0 -32232-4 0  9993,2 52452  53.2194  10.2611 0001518  63.7225 296.3923 15.08836739 20382,6917.89,95.438,540.805,538.705,0.0
52452.0,STARLINK-3909,PAYLOAD,2022-09-17 02:40:33,15.08828232,0.0001457,53.2194,8.4771,62.0254,298.0886,-4.0519e-06,-3.52e-06,0.0,0 STARLINK-3909,1 52452U 22049B   22260.11150219 -.00000352  00000-0 -40519-5 0  9993,2 52452  53.2194   8.4771 0001457  62.0254 298.0886 15.08828232 20605,6917.916,95.438,540.789,538.773,0.0
52452.0,STARLINK-3909,PAYLOAD,2022-09-17 12:12:52,15.08832714,0.0001472,53.2194,6.6931,56.2253,303.8879,-0.0001278,-2.321e-05,0.0,0 STARLINK-3909,1 52452U 22049B   22260.50894536 -.00002321  00000-0 -12780-3 0  9998,2 52452  53.2194   6.6931 0001472  56.2253 303.8879 15.08832714 20500,6917.903,95.438,540.786,538.749,0.0
52452.0,STARLINK-3909,PAYLOAD,2022-09-17 13:48:16,15.08826871,0.0001443999999999,53.2195,6.3958,61.3827,298.731,-2.1393000000000007e-05,-6.28e-06,0.0,0 STARLINK-3909,1 52452U 22049B   22260.57518682 -.00000628  00000-0 -21393-4 0  9999,2 52452  53.2195   6.3958 0001444  61.3827 298.7310 15.08826871 20510,6917.920999999999,95.438,540.784,538.7869999999998,0.0
